NORAD_CAT_ID,OBJECT_NAME,OBJECT_TYPE,EPOCH,MEAN_MOTION,ECCENTRICITY,INCLINATION,RA_OF_ASC_NODE,ARG_OF_PERICENTER,MEAN_ANOMALY,BSTAR,MEAN_MOTION_DOT,MEAN_MOTION_DDOT,TLE_LINE0,TLE_LINE1,TLE_LINE2,SEMIMAJOR_AXIS,PERIOD,APOGEE,PERIGEE,DECAYED
51150.0,STARLINK-3357,PAYLOAD,2022-11-01 15:32:52,15.08833918,0.0001535,53.2185,34.066,44.3063,315.8052,0.00016031,2.264e-05,0.0,0 STARLINK-3357,1 51150U 22005AY  22305.64782941  .00002264  00000-0  16031-3 0  9992,2 51150  53.2185  34.0660 0001535  44.3063 315.8052 15.08833918 43952,6917.899,95.438,540.826,538.702,0.0
51150.0,STARLINK-3357,PAYLOAD,2022-11-02 12:12:53,15.08834268,0.0001671,53.2175,30.2002,42.4245,317.6876,0.00028256,4.211e-05,0.0,0 STARLINK-3357,1 51150U 22005AY  22306.50895680  .00004211  00000-0  28256-3 0  9999,2 51150  53.2175  30.2002 0001671  42.4245 317.6876 15.08834268 45192,6917.898,95.438,540.919,538.607,0.0
51150.0,STARLINK-3357,PAYLOAD,2022-11-03 12:03:40,15.08852934,0.0001614,53.2179,25.7405,43.0766,317.0353,0.00034367,5.188e-05,0.0,0 STARLINK-3357,1 51150U 22005AY  22307.50254945  .00005188  00000-0  34367-3 0  9997,2 51150  53.2179  25.7405 0001614  43.0766 317.0353 15.08852934 45345,6917.840999999999,95.437,540.822,538.589,0.0
51150.0,STARLINK-3357,PAYLOAD,2022-11-03 13:39:03,15.08856728,0.0001724,53.2177,25.4434,39.1243,320.9874,0.00041808,6.375e-05,0.0,0 STARLINK-3357,1 51150U 22005AY  22307.56878833  .00006375  00000-0  41808-3 0  9998,2 51150  53.2177  25.4434 0001724  39.1243 320.9874 15.08856728 44244,6917.829000000002,95.436,540.887,538.502,0.0
51150.0,STARLINK-3357,PAYLOAD,2022-11-04 11:54:26,15.08856084,0.0001761,53.2184,21.281,45.0282,315.0852,0.00019756,2.859e-05,0.0,0 STARLINK-3357,1 51150U 22005AY  22308.49613706  .00002859  00000-0  19756-3 0  9997,2 51150  53.2184  21.2810 0001761  45.0282 315.0852 15.08856084 44385,6917.831,95.437,540.914,538.4780000000002,0.0
51150.0,STARLINK-3357,PAYLOAD,2022-11-04 15:05:12,15.08851512,0.0001771,53.2188,20.6875,44.6033,315.5101,-3.7635e-05,-8.87e-06,0.0,0 STARLINK-3357,1 51150U 22005AY  22308.62861695 -.00000887  00000-0 -37635-4 0  9992,2 51150  53.2188  20.6875 0001771  44.6033 315.5101 15.08851512 45512,6917.845,95.437,540.935,538.485,0.0
51150.0,STARLINK-3357,PAYLOAD,2022-11-05 11:45:14,15.08827148,0.0001837,53.2186,16.8207,47.5743,312.5404,-0.00028391,-4.802e-05,0.0,0 STARLINK-3357,1 51150U 22005AY  22309.48974845 -.00004802  00000-0 -28391-3 0  9998,2 51150  53.2186  16.8207 0001837  47.5743 312.5404 15.08827148 45644,6917.92,95.438,541.055,538.514,0.0
51150.0,STARLINK-3357,PAYLOAD,2022-11-05 13:20:37,15.08826084,0.0001807,53.2185,16.5244,44.8403,315.2735,-0.00028427,-4.808e-05,0.0,0 STARLINK-3357,1 51150U 22005AY  22309.55598965 -.00004808  00000-0 -28427-3 0  9997,2 51150  53.2185  16.5244 0001807  44.8403 315.2735 15.08826084 44544,6917.9230000000025,95.438,541.038,538.538,0.0
51150.0,STARLINK-3357,PAYLOAD,2022-11-06 11:36:01,15.08832549,0.0001891,53.2183,12.3604,47.8519,312.2634,9.7409e-05,1.262e-05,0.0,0 STARLINK-3357,1 51150U 22005AY  22310.48335418  .00001262  00000-0  97409-4 0  9999,2 51150  53.2183  12.3604 0001891  47.8519 312.2634 15.08832549 45796,6917.903,95.438,541.076,538.46,0.0
51150.0,STARLINK-3357,PAYLOAD,2022-11-07 03:29:54,15.08831254,0.0001856,53.2178,9.3873,49.709,310.4064,0.00045117,6.898e-05,0.0,0 STARLINK-3357,1 51150U 22005AY  22311.14576480  .00006898  00000-0  45117-3 0  9997,2 51150  53.2178   9.3873 0001856  49.7090 310.4064 15.08831254 45890,6917.906999999997,95.438,541.056,538.488,0.0
51150.0,STARLINK-3357,PAYLOAD,2022-11-07 20:59:08,15.08842831,0.0001933,53.218,6.1160000000000005,49.0825,311.0334,0.00054923,8.464e-05,0.0,0 STARLINK-3357,1 51150U 22005AY  22311.87440796  .00008464  00000-0  54923-3 0  9993,2 51150  53.2180   6.1160 0001933  49.0825 311.0334 15.08842831 44891,6917.871999999999,95.437,541.0740000000002,538.4,0.0
51150.0,STARLINK-3357,PAYLOAD,2022-11-08 06:31:27,15.08868669,0.0001954,53.2175,4.3323,47.9448,312.171,0.0012477,0.00019641,0.0,0 STARLINK-3357,1 51150U 22005AY  22312.27184118  .00019641  00000-0  12477-2 0  9997,2 51150  53.2175   4.3323 0001954  47.9448 312.1710 15.08868669 46065,6917.793000000002,95.436,541.009,538.306,0.0
51150.0,STARLINK-3357,PAYLOAD,2022-11-08 09:42:13,15.08866323,0.0001885,53.2175,3.7377,47.1526,312.9625,0.001016,0.0001593,0.0,0 STARLINK-3357,1 51150U 22005AY  22312.40431991  .00015930  00000-0  10160-2 0  9990,2 51150  53.2175   3.7377 0001885  47.1526 312.9625 15.08866323 44975,6917.8,95.436,540.969,538.361,0.0
51150.0,STARLINK-3357,PAYLOAD,2022-11-09 11:08:21,15.08839889,0.0002052,53.2175,358.9796,45.1481,314.9678,-0.0012427,-0.00020012,0.0,0 STARLINK-3357,1 51150U 22005AY  22313.46414133 -.00020012  00000-0 -12427-2 0  9993,2 51150  53.2175 358.9796 0002052  45.1481 314.9678 15.08839889 45136,6917.880999999999,95.438,541.165,538.326,0.0
51150.0,STARLINK-3357,PAYLOAD,2022-11-09 20:40:41,15.08808093,0.0002313,53.2177,357.1957,47.0259,313.0926,0.00037289,5.646e-05,0.0,0 STARLINK-3357,1 51150U 22005AY  22313.86158839  .00005646  00000-0  37289-3 0  9993,2 51150  53.2177 357.1957 0002313  47.0259 313.0926 15.08808093 45197,6917.978,95.44,541.443,538.243,0.0
51150.0,STARLINK-3357,PAYLOAD,2022-11-10 03:02:14,15.08799688,0.0002449,53.218,356.0072,43.798,316.3206,0.00099905,0.0001563,0.0,0 STARLINK-3357,1 51150U 22005AY  22314.12655510  .00015630  00000-0  99905-3 0  9998,2 51150  53.2180 356.0072 0002449  43.7980 316.3206 15.08799688 46345,6918.004,95.44,541.563,538.174,0.0
51150.0,STARLINK-3357,PAYLOAD,2022-11-10 10:59:10,15.08823299,0.000202,53.2175,354.52,43.2048,316.9102,0.00055268,8.515e-05,0.0,0 STARLINK-3357,1 51150U 22005AY  22314.45775675  .00008515  00000-0  55268-3 0  9997,2 51150  53.2175 354.5200 0002020  43.2048 316.9102 15.08823299 45289,6917.931,95.439,541.194,538.399,0.0
51150.0,STARLINK-3357,PAYLOAD,2022-11-11 10:49:57,15.08840091,0.0001981,53.2188,350.0589,41.9112,318.2031,0.00042553,6.491e-05,0.0,0 STARLINK-3357,1 51150U 22005AY  22315.45136092  .00006491  00000-0  42553-3 0  9996,2 51150  53.2188 350.0589 0001981  41.9112 318.2031 15.08840091 45438,6917.88,95.438,541.116,538.375,0.0
51150.0,STARLINK-3357,PAYLOAD,2022-11-12 02:43:48,15.08851835,0.0002016,53.2176,347.085,44.3568,315.7585,0.00058473,9.033e-05,0.0,0 STARLINK-3357,1 51150U 22005AY  22316.11375969  .00009033  00000-0  58473-3 0  9991,2 51150  53.2176 347.0850 0002016  44.3568 315.7585 15.08851835 46642,6917.844,95.437,541.104,538.315,0.0
51150.0,STARLINK-3357,PAYLOAD,2022-11-12 10:40:44,15.08844622,0.0002008,53.2181,345.5977,43.1907,316.9242,0.00022371,3.274e-05,0.0,0 STARLINK-3357,1 51150U 22005AY  22316.44496007  .00003274  00000-0  22371-3 0  9993,2 51150  53.2181 345.5977 0002008  43.1907 316.9242 15.08844622 46690,6917.866,95.437,541.12,538.342,0.0
51150.0,STARLINK-3357,PAYLOAD,2022-11-13 10:31:31,15.08833499,0.0001918,53.2183,341.1382,37.0758,323.0366,-0.00010735,-1.996e-05,0.0,0 STARLINK-3357,1 51150U 22005AY  22317.43856331 -.00001996  00000-0 -10735-3 0  9995,2 51150  53.2183 341.1382 0001918  37.0758 323.0366 15.08833499 46842,6917.9,95.438,541.092,538.438,0.0
51150.0,STARLINK-3357,PAYLOAD,2022-11-14 08:46:56,15.08828452,0.0002029,53.2186,336.9753,41.1886,318.9259,3.7647e-06,-2.28e-06,0.0,0 STARLINK-3357,1 51150U 22005AY  22318.36593617 -.00000228  00000-0  37647-5 0  9992,2 51150  53.2186 336.9753 0002029  41.1886 318.9259 15.08828452 46983,6917.916,95.438,541.184,538.377,0.0
51150.0,STARLINK-3357,PAYLOAD,2022-11-14 10:22:19,15.08830371,0.0002042,53.2186,336.6778,41.1378,318.9768,2.179e-05,5.9e-07,0.0,0 STARLINK-3357,1 51150U 22005AY  22318.43217456  .00000059  00000-0  21790-4 0  9996,2 51150  53.2186 336.6778 0002042  41.1378 318.9768 15.08830371 45884,6917.91,95.438,541.187,538.362,0.0
51150.0,STARLINK-3357,PAYLOAD,2022-11-14 18:19:15,15.08833429,0.0002041,53.2186,335.1911,41.0773,319.0373,7.7645e-05,9.48e-06,0.0,0 STARLINK-3357,1 51150U 22005AY  22318.76337238  .00000948  00000-0  77645-4 0  9990,2 51150  53.2186 335.1911 0002041  41.0773 319.0373 15.08833429 47045,6917.9,95.438,541.177,538.354,0.0
51150.0,STARLINK-3357,PAYLOAD,2022-11-15 05:26:56,15.08839256,0.0002033,53.2185,333.1097,43.4712,316.644,0.00016306,2.308e-05,0.0,0 STARLINK-3357,1 51150U 22005AY  22319.22704549  .00002308  00000-0  16306-3 0  9993,2 51150  53.2185 333.1097 0002033  43.4712 316.6440 15.08839256 47117,6917.8830000000025,95.438,541.154,538.341,0.0
51150.0,STARLINK-3357,PAYLOAD,2022-11-15 10:13:06,15.0883158,0.0002011,53.2184,332.2178,42.6893,317.4255,0.00010242,1.342e-05,0.0,0 STARLINK-3357,1 51150U 22005AY  22319.42577369  .00001342  00000-0  10242-3 0  9993,2 51150  53.2184 332.2178 0002011  42.6893 317.4255 15.08831580 47141,6917.906,95.438,541.1619999999998,538.38,0.0
51150.0,STARLINK-3357,PAYLOAD,2022-11-15 18:10:02,15.08832027,0.0001955,53.2184,330.7308,43.6028,316.5118,0.00013721,1.896e-05,0.0,0 STARLINK-3357,1 51150U 22005AY  22319.75697531  .00001896  00000-0  13721-3 0  9992,2 51150  53.2184 330.7308 0001955  43.6028 316.5118 15.08832027 46083,6917.905,95.438,541.122,538.4169999999998,0.0
51150.0,STARLINK-3357,PAYLOAD,2022-11-16 08:28:30,15.08843215,0.0002143,53.2183,328.0556,45.9109,314.2059,0.00011101,1.479e-05,0.0,0 STARLINK-3357,1 51150U 22005AY  22320.35313084  .00001479  00000-0  11101-3 0  9995,2 51150  53.2183 328.0556 0002143  45.9109 314.2059 15.08843215 47285,6917.871,95.437,541.2180000000002,538.253,0.0
51150.0,STARLINK-3357,PAYLOAD,2022-11-16 18:00:49,15.08837464,0.0002076,53.2181,326.2706,43.8392,316.2764,7.4498e-05,8.98e-06,0.0,0 STARLINK-3357,1 51150U 22005AY  22320.75057595  .00000898  00000-0  74498-4 0  9994,2 51150  53.2181 326.2706 0002076  43.8392 316.2764 15.08837464 47347,6917.888000000001,95.438,541.189,538.317,0.0
